{
    "links": {
        "self": "http://www.neowsapp.com/rest/v1/neo/54016586?api_key=iIulBulltgU6a56xZRHN4H3l9WmuAYTsLGpBGhQ2"
    },
    "id": "54016586",
    "neo_reference_id": "54016586",
    "name": "(2020 HL1)",
    "designation": "2020 HL1",
    "nasa_jpl_url": "http://ssd.jpl.nasa.gov/sbdb.cgi?sstr=54016586",
    "absolute_magnitude_h": 25.268,
    "estimated_diameter": {
        "kilometers": {
            "estimated_diameter_min": 0.0234938925,
            "estimated_diameter_max": 0.0525339406
        },
        "meters": {
            "estimated_diameter_min": 23.4938924658,
            "estimated_diameter_max": 52.5339406097
        },
        "miles": {
            "estimated_diameter_min": 0.0145984235,
            "estimated_diameter_max": 0.0326430672
        },
        "feet": {
            "estimated_diameter_min": 77.0797021576,
            "estimated_diameter_max": 172.3554537098
        }
    },
    "is_potentially_hazardous_asteroid": false,
    "close_approach_data": [
        {
            "close_approach_date": "2020-05-03",
            "close_approach_date_full": "2020-May-03 11:59",
            "epoch_date_close_approach": 1588507140000,
            "relative_velocity": {
                "kilometers_per_second": "11.980788328",
                "kilometers_per_hour": "43130.837980845",
                "miles_per_hour": "26799.8254109312"
            },
            "miss_distance": {
                "astronomical": "0.032340737",
                "lunar": "12.580546693",
                "kilometers": "4838105.36943019",
                "miles": "3006259.274469022"
            },
            "orbiting_body": "Earth"
        }
    ],
    "orbital_data": {
        "orbit_id": "6",
        "orbit_determination_date": "2020-04-28 07:10:57",
        "first_observation_date": "2020-04-16",
        "last_observation_date": "2020-04-28",
        "data_arc_in_days": 12,
        "observations_used": 47,
        "orbit_uncertainty": "8",
        "minimum_orbit_intersection": ".00586312",
        "jupiter_tisserand_invariant": "3.208",
        "epoch_osculation": "2458961.5",
        "eccentricity": ".6136019512451029",
        "semi_major_axis": "2.449434609771644",
        "inclination": "1.415346179680742",
        "ascending_node_longitude": "241.8820466891401",
        "orbital_period": "1400.222983214312",
        "perihelion_distance": ".9464567537684762",
        "perihelion_argument": "19.73267207458791",
        "aphelion_distance": "3.952412465774811",
        "perihelion_time": "2459001.600865976672",
        "mean_anomaly": "349.6899908624108",
        "mean_motion": ".2571019075644611",
        "equinox": "J2000",
        "orbit_class": {
            "orbit_class_type": "APO",
            "orbit_class_description": "Near-Earth asteroid orbits which cross the Earth’s orbit similar to that of 1862 Apollo",
            "orbit_class_range": "a (semi-major axis) > 1.0 AU; q (perihelion) < 1.017 AU"
        }
    },
    "is_sentry_object": false
}